{
"type": "FeatureCollection",
"name": "exposed_railways",
"crs": { "type": "name", "properties": { "name": "urn:ogc:def:crs:OGC:1.3:CRS84" } },
"features": [
{ "type": "Feature", "properties": { "name": "Aranjuez - València Sant Isidre", "railway": "rail", "overlap_m": 30.76505917184593 }, "geometry": { "type": "LineString", "coordinates": [ [ -0.4173376, 39.4599149 ], [ -0.4129925, 39.4590405 ] ] } },
{ "type": "Feature", "properties": { "name": "300 - Madrid Chamartín - València Estació del Nord", "railway": "rail", "overlap_m": 83.557170444990788 }, "geometry": { "type": "LineString", "coordinates": [ [ -0.3865816, 39.4382319 ], [ -0.3872473, 39.4361288 ] ] } },
{ "type": "Feature", "properties": { "name": "nan", "railway": "subway", "overlap_m": 34.127487771125935 }, "geometry": { "type": "LineString", "coordinates": [ [ -0.4052084, 39.4483404 ], [ -0.4057521, 39.4476363 ], [ -0.4060378, 39.4472345 ], [ -0.4069864, 39.4458223 ] ] } },
{ "type": "Feature", "properties": { "name": "Línea de Alta Velocidad Madrid - Cuenca - Valencia", "railway": "rail", "overlap_m": 30.005016627311441 }, "geometry": { "type": "LineString", "coordinates": [ [ -0.4017109, 39.4446281 ], [ -0.4026472, 39.4447091 ], [ -0.4062607, 39.4448411 ] ] } },
{ "type": "Feature", "properties": { "name": "Línea de Alta Velocidad Madrid - Cuenca - Valencia", "railway": "rail", "overlap_m": 30.005784269278053 }, "geometry": { "type": "LineString", "coordinates": [ [ -0.406251, 39.4448038 ], [ -0.4026372, 39.444668 ], [ -0.4017188, 39.4445923 ] ] } },
{ "type": "Feature", "properties": { "name": "300 - Madrid Chamartín - València Estació del Nord", "railway": "rail", "overlap_m": 65.121725706027831 }, "geometry": { "type": "LineString", "coordinates": [ [ -0.3872027, 39.4361243 ], [ -0.3865389, 39.4382265 ] ] } },
{ "type": "Feature", "properties": { "name": "Xirivella L'Alter - València Sant Isidre", "railway": "disused", "overlap_m": 30.778480391697947 }, "geometry": { "type": "LineString", "coordinates": [ [ -0.4173609, 39.4599644 ], [ -0.4129954, 39.459081 ] ] } },
{ "type": "Feature", "properties": { "name": "304 - Alfafar Benetússer - València Font de Sant Lluís aguja km 1,3", "railway": "rail", "overlap_m": 45.298219905412111 }, "geometry": { "type": "LineString", "coordinates": [ [ -0.3871569, 39.4361197 ], [ -0.3864901, 39.4382204 ] ] } },
{ "type": "Feature", "properties": { "name": "nan", "railway": "construction", "overlap_m": 30.003982803920028 }, "geometry": { "type": "LineString", "coordinates": [ [ -0.4083383, 39.4448275 ], [ -0.4029485, 39.4446281 ], [ -0.4023912, 39.4445898 ], [ -0.4017348, 39.4445194 ] ] } },
{ "type": "Feature", "properties": { "name": "nan", "railway": "subway", "overlap_m": 33.275129760842837 }, "geometry": { "type": "LineString", "coordinates": [ [ -0.4051882, 39.4483138 ], [ -0.4054101, 39.4480381 ], [ -0.4060141, 39.4472148 ], [ -0.406964, 39.4457921 ] ] } },
{ "type": "Feature", "properties": { "name": "nan", "railway": "subway", "overlap_m": 151.95497770766545 }, "geometry": { "type": "LineString", "coordinates": [ [ -0.4295204, 39.4763051 ], [ -0.4294366, 39.4762792 ], [ -0.4292424, 39.4762547 ], [ -0.4289093, 39.4762586 ], [ -0.4264416, 39.4765299 ], [ -0.426157, 39.4765119 ], [ -0.4259829, 39.4764705 ] ] } },
{ "type": "Feature", "properties": { "name": "nan", "railway": "subway", "overlap_m": 152.04560954048691 }, "geometry": { "type": "LineString", "coordinates": [ [ -0.4259534, 39.4765265 ], [ -0.4262407, 39.476585499999977 ], [ -0.4264684, 39.4765907 ], [ -0.4289227, 39.476309 ], [ -0.4292358, 39.4763051 ], [ -0.4294988, 39.4763501 ] ] } },
{ "type": "Feature", "properties": { "name": "nan", "railway": "construction", "overlap_m": 30.004153209604109 }, "geometry": { "type": "LineString", "coordinates": [ [ -0.4083407, 39.4447916 ], [ -0.4029394, 39.4445915 ], [ -0.4023689, 39.4445528 ], [ -0.4017428, 39.4444829 ] ] } },
{ "type": "Feature", "properties": { "name": "nan", "railway": "razed", "overlap_m": 180.60934758099097 }, "geometry": { "type": "LineString", "coordinates": [ [ -0.3789597, 39.4624725 ], [ -0.3790984, 39.4622679 ], [ -0.3793341, 39.461972899999985 ], [ -0.3794743, 39.4618564 ], [ -0.3798548, 39.4616102 ], [ -0.3802868, 39.4613574 ], [ -0.3807813, 39.4611517 ], [ -0.3810432, 39.4610518 ], [ -0.3815163, 39.4609204 ], [ -0.3817562, 39.4608591 ], [ -0.3820387, 39.4608136 ], [ -0.3828365, 39.4608254 ], [ -0.3831724, 39.4608517 ], [ -0.38385, 39.4610123 ], [ -0.3847338, 39.4614563 ], [ -0.3863295, 39.4624572 ], [ -0.3873728, 39.4630981 ], [ -0.3876242, 39.463236 ], [ -0.3878373, 39.4633794 ], [ -0.388315, 39.463618699999984 ], [ -0.3887754, 39.4637968 ], [ -0.3892581, 39.4639404 ], [ -0.3900794, 39.4640816 ], [ -0.3907847, 39.4641648 ], [ -0.4322693, 39.4624522 ] ] } },
{ "type": "Feature", "properties": { "name": "nan", "railway": "razed", "overlap_m": 31.289965580267705 }, "geometry": { "type": "LineString", "coordinates": [ [ -0.4208488, 39.4639396 ], [ -0.4208672, 39.464839 ], [ -0.4209142, 39.4652686 ], [ -0.420998, 39.4656905 ], [ -0.421122, 39.46598560000001 ], [ -0.4229158, 39.4684652 ], [ -0.4233986, 39.469094099999985 ], [ -0.4260171, 39.4726528 ], [ -0.4266273, 39.4735509 ], [ -0.4277069, 39.4749821 ], [ -0.4281461, 39.4754945 ], [ -0.4285182, 39.4758309 ], [ -0.4288535, 39.4760949 ] ] } }
]
}
