{
"type": "FeatureCollection",
"name": "exposed_roads",
"crs": { "type": "name", "properties": { "name": "urn:ogc:def:crs:OGC:1.3:CRS84" } },
"features": [
{ "type": "Feature", "properties": { "osmid": "468909212", "name": "Circumval·lació de València", "road_class": "motorway", "overlap_m": 177.70435730105493 }, "geometry": { "type": "LineString", "coordinates": [ [ -0.4101917, 39.4545025 ], [ -0.4136068, 39.459159 ], [ -0.4145615, 39.4604965 ], [ -0.4171418, 39.4640261 ] ] } },
{ "type": "Feature", "properties": { "osmid": "12345673, 1330604109, 1330604111", "name": "Autovia de Torrent", "road_class": "trunk", "overlap_m": 108.72288721931474 }, "geometry": { "type": "LineString", "coordinates": [ [ -0.4084265, 39.4532605 ], [ -0.4111012, 39.4512708 ] ] } },
{ "type": "Feature", "properties": { "osmid": "1333210888, 12374524", "name": "nan", "road_class": "other", "overlap_m": 18.379336071309964 }, "geometry": { "type": "LineString", "coordinates": [ [ -0.3936681, 39.4417644 ], [ -0.3938486, 39.4417385 ], [ -0.3944214, 39.4415553 ], [ -0.3946949, 39.4415086 ], [ -0.394996, 39.4414957 ], [ -0.3955907, 39.44151990000001 ], [ -0.3957507, 39.4415072 ], [ -0.3958878, 39.4414759 ], [ -0.3961297, 39.4413699 ], [ -0.396526, 39.4410932 ], [ -0.3966422, 39.4410324 ], [ -0.3967398, 39.4410082 ], [ -0.3968377, 39.4410094 ], [ -0.3970613, 39.4410528 ] ] } },
{ "type": "Feature", "properties": { "osmid": "118695377", "name": "nan", "road_class": "other", "overlap_m": 20.130784075091093 }, "geometry": { "type": "LineString", "coordinates": [ [ -0.3960749, 39.44063280000001 ], [ -0.3970613, 39.4410528 ] ] } },
{ "type": "Feature", "properties": { "osmid": "35071710", "name": "Avinguda del Sud", "road_class": "secondary", "overlap_m": 33.359283018210917 }, "geometry": { "type": "LineString", "coordinates": [ [ -0.3965327, 39.438219799999985 ], [ -0.3952083, 39.4401851 ] ] } },
{ "type": "Feature", "properties": { "osmid": "35072929, 35072930, 187046819, 118061730, 481233834, 29280787, 29280854, 187046841, 1330601501, 1330601502", "name": "Circumval·lació de València", "road_class": "motorway", "overlap_m": 60.860420981949026 }, "geometry": { "type": "LineString", "coordinates": [ [ -0.4425999, 39.4873838 ], [ -0.44202, 39.4872094 ], [ -0.4416055, 39.4871097 ], [ -0.4412278, 39.4870407 ], [ -0.4408169, 39.4869915 ], [ -0.4404078, 39.4869662 ], [ -0.4396988, 39.4869818 ], [ -0.4389666, 39.4870554 ], [ -0.4375325, 39.4872971 ], [ -0.4372406, 39.4873332 ], [ -0.4369497, 39.487347899999989 ], [ -0.4366651, 39.487341 ], [ -0.4363312, 39.4873049 ], [ -0.4360633, 39.4872557 ], [ -0.4356901, 39.4871429 ], [ -0.4354421, 39.4870431 ], [ -0.4351297, 39.486878 ], [ -0.4348428, 39.4866826 ], [ -0.4345962, 39.4864594 ], [ -0.4343749, 39.4861912 ], [ -0.4341777, 39.4858485 ], [ -0.4340766, 39.4855416 ], [ -0.4336045, 39.4830371 ], [ -0.4335056, 39.4827048 ], [ -0.4333021, 39.4822199 ], [ -0.433152, 39.481952 ], [ -0.4328893, 39.481576 ], [ -0.4317728, 39.480365 ], [ -0.4316003, 39.4801576 ] ] } },
{ "type": "Feature", "properties": { "osmid": "23614665", "name": "nan", "road_class": "other", "overlap_m": 37.992779861210138 }, "geometry": { "type": "LineString", "coordinates": [ [ -0.3880369, 39.438295599999989 ], [ -0.3881379, 39.4383372 ], [ -0.3884523, 39.4384065 ] ] } },
{ "type": "Feature", "properties": { "osmid": "1333210883, 1333210884, 1333210867, 1333210868, 1333210871, 1333210872, 12374522", "name": "Circumval·lació de València", "road_class": "trunk", "overlap_m": 334.76326742796454 }, "geometry": { "type": "LineString", "coordinates": [ [ -0.3880369, 39.438295599999989 ], [ -0.3881754, 39.43829680000001 ], [ -0.3886529, 39.4383574 ], [ -0.3895564, 39.4384893 ], [ -0.390948, 39.438762 ], [ -0.3917771, 39.438959 ], [ -0.3927788, 39.4392312 ], [ -0.3936027, 39.4394827 ], [ -0.3944208, 39.4397668 ], [ -0.3951738, 39.440050699999986 ], [ -0.3964386, 39.4406011 ], [ -0.3972722, 39.4409975 ], [ -0.3979422, 39.4413503 ], [ -0.3984413, 39.441636 ], [ -0.3985373, 39.4417143 ] ] } },
{ "type": "Feature", "properties": { "osmid": "730406939, 23614116, 23614117", "name": "Pont de Josep Soto Micó, Carrer de Josep Soto Micó, Avinguda Real de Madrid", "road_class": "tertiary", "overlap_m": 124.35500451859336 }, "geometry": { "type": "LineString", "coordinates": [ [ -0.3906546, 39.4355152 ], [ -0.3890054, 39.4397221 ] ] } },
{ "type": "Feature", "properties": { "osmid": "255847666", "name": "nan", "road_class": "other", "overlap_m": 46.695667738194103 }, "geometry": { "type": "LineString", "coordinates": [ [ -0.4248536, 39.4748327 ], [ -0.4249357, 39.4749178 ], [ -0.4255928, 39.4757982 ], [ -0.425967, 39.4762226 ], [ -0.426189, 39.4765171 ], [ -0.4263021, 39.4766098 ] ] } },
{ "type": "Feature", "properties": { "osmid": "428944530, 23628915", "name": "Circumval·lació de València", "road_class": "trunk", "overlap_m": 99.408760988910331 }, "geometry": { "type": "LineString", "coordinates": [ [ -0.4248536, 39.4748327 ], [ -0.4249015, 39.4749328 ], [ -0.427479, 39.4784409 ], [ -0.4275343, 39.4785569 ], [ -0.4275449, 39.4787127 ], [ -0.4274397, 39.4789457 ], [ -0.4273762, 39.4790122 ] ] } },
{ "type": "Feature", "properties": { "osmid": "23628916", "name": "nan", "road_class": "other", "overlap_m": 31.585355513668109 }, "geometry": { "type": "LineString", "coordinates": [ [ -0.427547, 39.479051699999985 ], [ -0.4275595, 39.478953 ], [ -0.4275923, 39.4788739 ], [ -0.4276428, 39.4788299 ], [ -0.4277681, 39.478816499999986 ], [ -0.4278276, 39.4788352 ], [ -0.4279008, 39.4788923 ], [ -0.4281555, 39.479219 ], [ -0.4282547, 39.4792883 ] ] } },
{ "type": "Feature", "properties": { "osmid": "1028924270, 428944486", "name": "Circumval·lació de València", "road_class": "motorway", "overlap_m": 116.68913557791282 }, "geometry": { "type": "LineString", "coordinates": [ [ -0.4282547, 39.4792883 ], [ -0.4298575, 39.4814487 ], [ -0.4301642, 39.4819629 ], [ -0.4303042, 39.4822749 ], [ -0.4307321, 39.4835553 ], [ -0.4308728, 39.4838951 ] ] } },
{ "type": "Feature", "properties": { "osmid": "1418707465", "name": "Circumval·lació de València", "road_class": "trunk", "overlap_m": 29.033211947790317 }, "geometry": { "type": "LineString", "coordinates": [ [ -0.4206806, 39.4691142 ], [ -0.4216735, 39.4704679 ], [ -0.4217316, 39.470590299999984 ] ] } },
{ "type": "Feature", "properties": { "osmid": "468909226, 468909227", "name": "Circumval·lació de València", "road_class": "motorway", "overlap_m": 221.7629126121262 }, "geometry": { "type": "LineString", "coordinates": [ [ -0.4263021, 39.4766098 ], [ -0.4270376, 39.4776111 ], [ -0.4271497, 39.477735 ], [ -0.4282157, 39.4791956 ], [ -0.4282547, 39.4792883 ] ] } },
{ "type": "Feature", "properties": { "osmid": "118695412", "name": "Circumval·lació de València", "road_class": "trunk", "overlap_m": 54.46205543527531 }, "geometry": { "type": "LineString", "coordinates": [ [ -0.4085821, 39.4525594 ], [ -0.4086383, 39.4526678 ], [ -0.4103242, 39.454927499999989 ] ] } },
{ "type": "Feature", "properties": { "osmid": "142796626", "name": "nan", "road_class": "other", "overlap_m": 77.113143667127943 }, "geometry": { "type": "LineString", "coordinates": [ [ -0.4085821, 39.4525594 ], [ -0.4086903, 39.4526392 ], [ -0.4092163, 39.4533411 ], [ -0.4095977, 39.4538018 ], [ -0.4100421, 39.4543956 ], [ -0.4101917, 39.4545025 ] ] } },
{ "type": "Feature", "properties": { "osmid": "23628924", "name": "nan", "road_class": "other", "overlap_m": 17.922605354434413 }, "geometry": { "type": "LineString", "coordinates": [ [ -0.4179972, 39.4693226 ], [ -0.4185416, 39.4693777 ], [ -0.4186911, 39.4694144 ], [ -0.4189592, 39.4695481 ], [ -0.4194671, 39.4699042 ], [ -0.4196024, 39.4699705 ], [ -0.419751, 39.4700151 ], [ -0.4199276, 39.4700411 ], [ -0.4201173, 39.4700437 ], [ -0.420314, 39.4700213 ], [ -0.4207694, 39.4699095 ], [ -0.4208941, 39.4699037 ], [ -0.4210315, 39.4699272 ], [ -0.4211588, 39.4699889 ], [ -0.4212561, 39.4700564 ], [ -0.4213591, 39.470154299999983 ], [ -0.4216083, 39.4704892 ], [ -0.4217316, 39.470590299999984 ] ] } },
{ "type": "Feature", "properties": { "osmid": "468909224, 468909225", "name": "Circumval·lació de València", "road_class": "trunk", "overlap_m": 74.863570583115489 }, "geometry": { "type": "LineString", "coordinates": [ [ -0.4217316, 39.470590299999984 ], [ -0.4223165, 39.4713819 ], [ -0.422453, 39.471539499999984 ], [ -0.4248536, 39.4748327 ] ] } },
{ "type": "Feature", "properties": { "osmid": "118190560, 1330601504, 468909314, 118061731, 1330601503, 29280786, 143159380, 29280471, 35072927", "name": "nan", "road_class": "trunk", "overlap_m": 60.914772103581363 }, "geometry": { "type": "LineString", "coordinates": [ [ -0.4326269, 39.4903508 ], [ -0.4327347, 39.4902089 ], [ -0.4331345, 39.4897597 ], [ -0.4335153, 39.4892096 ], [ -0.4337599, 39.488738699999985 ], [ -0.4339788, 39.488208599999986 ], [ -0.4341178, 39.4875702 ], [ -0.4341591, 39.4870303 ], [ -0.4341486, 39.4867134 ], [ -0.4340173, 39.4856413 ], [ -0.4335409, 39.483046599999987 ], [ -0.433438, 39.4827025 ], [ -0.4332328, 39.4822226 ], [ -0.433087, 39.4819661 ], [ -0.4328235, 39.4815931 ], [ -0.4320885, 39.4808016 ], [ -0.4314585, 39.4800756 ], [ -0.4311964, 39.4797359 ], [ -0.4307515, 39.4791055 ], [ -0.4307162, 39.4790239 ] ] } },
{ "type": "Feature", "properties": { "osmid": "142798584, 187046827, 1061863036, 142798575", "name": "Accés oest a Quart de Poblet i est a Mislata", "road_class": "secondary", "overlap_m": 96.99622571430244 }, "geometry": { "type": "LineString", "coordinates": [ [ -0.4337283, 39.4847189 ], [ -0.4330976, 39.4843937 ], [ -0.432571, 39.4840696 ], [ -0.4317227, 39.483489 ], [ -0.4313718, 39.4833007 ], [ -0.4310458, 39.483215 ], [ -0.430859, 39.4832005 ], [ -0.4299957, 39.4832055 ], [ -0.4297848, 39.483145499999985 ], [ -0.4296161, 39.4830695 ], [ -0.4294922, 39.4829384 ], [ -0.4294382, 39.4827878 ], [ -0.4296204, 39.4818801 ], [ -0.4296161, 39.4816971 ], [ -0.4294996, 39.4814642 ] ] } },
{ "type": "Feature", "properties": { "osmid": "463242996, 1330604110, 12345668", "name": "Autovia de Torrent", "road_class": "trunk", "overlap_m": 86.256664044852116 }, "geometry": { "type": "LineString", "coordinates": [ [ -0.4111564, 39.4510946 ], [ -0.4084848, 39.453077199999989 ] ] } },
{ "type": "Feature", "properties": { "osmid": "1225247297, 21096577, 1333210885, 1333210886, 1368144669, 468909202, 1333210869, 1333210870, 1333210873, 1333210874, 1333210877, 1333210878", "name": "Circumval·lació de València", "road_class": "motorway", "overlap_m": 814.36689048017956 }, "geometry": { "type": "LineString", "coordinates": [ [ -0.3837352, 39.4377666 ], [ -0.3864778, 39.4380108 ], [ -0.3881886, 39.4381791 ], [ -0.3894668, 39.4383574 ], [ -0.3900963, 39.438464399999987 ], [ -0.3909893, 39.4386472 ], [ -0.3918203, 39.4388417 ], [ -0.3928269, 39.4391159 ], [ -0.3936669, 39.4393741 ], [ -0.3945097, 39.4396652 ], [ -0.3952451, 39.4399446 ], [ -0.3964732, 39.440483 ], [ -0.3973623, 39.4409175 ], [ -0.3980257, 39.441269 ], [ -0.3991107, 39.441910300000011 ], [ -0.4001175, 39.4425727 ] ] } },
{ "type": "Feature", "properties": { "osmid": "474221393, 474221401, 1346398446", "name": "Autovía del Este / Autovia de l'Est", "road_class": "motorway", "overlap_m": 60.591439274269369 }, "geometry": { "type": "LineString", "coordinates": [ [ -0.4244956, 39.4697573 ], [ -0.4204548, 39.4692307 ] ] } },
{ "type": "Feature", "properties": { "osmid": "1333210865, 1333210866, 1333210863", "name": "nan", "road_class": "other", "overlap_m": 32.470546379480389 }, "geometry": { "type": "LineString", "coordinates": [ [ -0.3884523, 39.4384065 ], [ -0.3899579, 39.4386708 ], [ -0.3902194, 39.438737 ] ] } },
{ "type": "Feature", "properties": { "osmid": "1062676415, 1368144668, 468909223", "name": "Circumval·lació de València", "road_class": "motorway", "overlap_m": 504.0600168743207 }, "geometry": { "type": "LineString", "coordinates": [ [ -0.4171418, 39.4640261 ], [ -0.4262343, 39.4764829 ], [ -0.4263021, 39.4766098 ] ] } },
{ "type": "Feature", "properties": { "osmid": "143159387", "name": "Circumval·lació de València", "road_class": "motorway", "overlap_m": 28.079455865408178 }, "geometry": { "type": "LineString", "coordinates": [ [ -0.4307162, 39.4790239 ], [ -0.4295938, 39.4773648 ], [ -0.4293838, 39.4770086 ], [ -0.4292377, 39.4767195 ], [ -0.4288981, 39.475934 ], [ -0.4288002, 39.4757409 ], [ -0.4285451, 39.4753384 ], [ -0.4283451, 39.475086299999987 ], [ -0.4281188, 39.4748421 ], [ -0.4272938, 39.474096 ], [ -0.4270494, 39.4738442 ], [ -0.4267497, 39.4734872 ], [ -0.4243635, 39.4702082 ], [ -0.4235571, 39.4691454 ], [ -0.4228705, 39.4683511 ], [ -0.422568, 39.4679497 ], [ -0.4206748, 39.4653388 ], [ -0.42059, 39.465192699999989 ] ] } },
{ "type": "Feature", "properties": { "osmid": "730406939, 23614116, 23614117", "name": "Carrer de Josep Soto Micó, Avinguda Real de Madrid, Pont de Josep Soto Micó", "road_class": "tertiary", "overlap_m": 124.35500451859336 }, "geometry": { "type": "LineString", "coordinates": [ [ -0.3890054, 39.4397221 ], [ -0.3906546, 39.4355152 ] ] } },
{ "type": "Feature", "properties": { "osmid": "468909203", "name": "Circumval·lació de València", "road_class": "motorway", "overlap_m": 775.86450258046023 }, "geometry": { "type": "LineString", "coordinates": [ [ -0.4001175, 39.4425727 ], [ -0.4002475, 39.4426477 ], [ -0.4008128, 39.4430612 ], [ -0.4015073, 39.4436101 ], [ -0.4021886, 39.4442019 ], [ -0.4027542, 39.444728499999989 ], [ -0.4034211, 39.4454327 ], [ -0.4039853, 39.446069799999989 ], [ -0.4044378, 39.4466303 ], [ -0.4101917, 39.4545025 ] ] } },
{ "type": "Feature", "properties": { "osmid": "468909204", "name": "nan", "road_class": "other", "overlap_m": 108.50278677449475 }, "geometry": { "type": "LineString", "coordinates": [ [ -0.4001175, 39.4425727 ], [ -0.4002035, 39.4426774 ], [ -0.4007682, 39.443097399999985 ], [ -0.4011664, 39.4434229 ], [ -0.4020962, 39.4442663 ], [ -0.4026518, 39.444795 ], [ -0.402727, 39.4449191 ] ] } },
{ "type": "Feature", "properties": { "osmid": "1225247296, 468909206", "name": "Circumval·lació de València", "road_class": "trunk", "overlap_m": 93.49659385545084 }, "geometry": { "type": "LineString", "coordinates": [ [ -0.3985373, 39.4417143 ], [ -0.399641, 39.4424041 ], [ -0.4001172, 39.4427356 ], [ -0.4006875, 39.44316280000001 ], [ -0.4013866, 39.4437261 ], [ -0.4020472, 39.4443003 ], [ -0.4026039, 39.4448261 ], [ -0.402727, 39.4449191 ] ] } },
{ "type": "Feature", "properties": { "osmid": "428944484, 468909207, 1330443192, 1330443193, 1330443194", "name": "Circumval·lació de València", "road_class": "trunk", "overlap_m": 111.54866333369148 }, "geometry": { "type": "LineString", "coordinates": [ [ -0.402727, 39.4449191 ], [ -0.403305, 39.44552680000001 ], [ -0.4038799, 39.4461807 ], [ -0.4043003, 39.4467086 ], [ -0.4062853, 39.4494044 ], [ -0.4073947, 39.4509718 ] ] } },
{ "type": "Feature", "properties": { "osmid": "1026223392, 12265289", "name": "Avinguda del Sud", "road_class": "secondary", "overlap_m": 33.392670408343534 }, "geometry": { "type": "LineString", "coordinates": [ [ -0.3952747, 39.4403736 ], [ -0.3966917, 39.4382806 ] ] } },
{ "type": "Feature", "properties": { "osmid": "165993606", "name": "nan", "road_class": "other", "overlap_m": 21.77943529528773 }, "geometry": { "type": "LineString", "coordinates": [ [ -0.4089628, 39.4533394 ], [ -0.4089997, 39.453419399999987 ], [ -0.409134, 39.4536112 ], [ -0.4091149, 39.4537082 ], [ -0.4090372, 39.4537919 ], [ -0.4089172, 39.4538513 ], [ -0.4087843, 39.4538807 ], [ -0.4086487, 39.4538741 ], [ -0.4084717, 39.453824 ], [ -0.4083687, 39.4537577 ], [ -0.4083174, 39.4536747 ], [ -0.4082911, 39.4535655 ], [ -0.4083301, 39.453410199999986 ], [ -0.4084265, 39.4532605 ] ] } },
{ "type": "Feature", "properties": { "osmid": "468909210", "name": "nan", "road_class": "other", "overlap_m": 24.704544537859242 }, "geometry": { "type": "LineString", "coordinates": [ [ -0.4089628, 39.4533394 ], [ -0.4090395, 39.4534046 ], [ -0.4096563, 39.4541716 ] ] } },
{ "type": "Feature", "properties": { "osmid": "474221403, 474221404, 558581574, 1346398447", "name": "Autovía del Este / Autovia de l'Est", "road_class": "motorway", "overlap_m": 60.602968906437255 }, "geometry": { "type": "LineString", "coordinates": [ [ -0.4202924, 39.469338 ], [ -0.4244912, 39.4699014 ], [ -0.4252984, 39.470041 ] ] } }
]
}
