{
"type": "FeatureCollection",
"name": "flood_extent",
"crs": { "type": "name", "properties": { "name": "urn:ogc:def:crs:OGC:1.3:CRS84" } },
"features": [
{ "type": "Feature", "properties": { "feature_id": "flood-0001", "evidence": "high", "high_fraction": 0.7333, "area_km2": 0.0135, "source": "RadarWatch classical SAR change evidence" }, "geometry": { "type": "Polygon", "coordinates": [ [ [ -0.463712459957344, 39.500397544496153 ], [ -0.463732102813468, 39.499857440492939 ], [ -0.463383523852914, 39.499849831192073 ], [ -0.463393346429002, 39.499579779241131 ], [ -0.462347614379354, 39.499556945293371 ], [ -0.462357440862027, 39.499286893545651 ], [ -0.461660289515926, 39.49927166583997 ], [ -0.461670118558831, 39.499001614222919 ], [ -0.460972970434281, 39.498986382487317 ], [ -0.460963138698918, 39.49925643395904 ], [ -0.461311714041277, 39.499264050421417 ], [ -0.461301883519851, 39.499534101951191 ], [ -0.461999037293923, 39.499549331889796 ], [ -0.46198920933274, 39.499819383550253 ], [ -0.462337787764442, 39.49982699702646 ], [ -0.462327961017289, 39.500097048744919 ], [ -0.463025120969977, 39.500112272711078 ], [ -0.463015296783202, 39.500382324560164 ], [ -0.463712459957344, 39.500397544496153 ] ] ] } },
{ "type": "Feature", "properties": { "feature_id": "flood-0002", "evidence": "high", "high_fraction": 0.8537, "area_km2": 0.0738, "source": "RadarWatch classical SAR change evidence" }, "geometry": { "type": "Polygon", "coordinates": [ [ [ -0.436352410067932, 39.485473023894812 ], [ -0.436362332182115, 39.485202976962519 ], [ -0.437059329291078, 39.485218351809678 ], [ -0.437069248581381, 39.484948304716013 ], [ -0.43985723159323, 39.485009761788923 ], [ -0.43984732306448, 39.485279809468985 ], [ -0.440892822929953, 39.4853028388778 ], [ -0.440912631782948, 39.484762743063527 ], [ -0.439867139988652, 39.484739714094196 ], [ -0.439877048250746, 39.484469666384797 ], [ -0.438831561691876, 39.484446628246303 ], [ -0.438821649394291, 39.484716675735875 ], [ -0.437776160000356, 39.484693627988598 ], [ -0.437786076333411, 39.484423580718953 ], [ -0.437437581480765, 39.48441589612343 ], [ -0.437447499025522, 39.484145848912434 ], [ -0.436053526330144, 39.484115100391733 ], [ -0.4360634491219, 39.483845053459454 ], [ -0.435017975037589, 39.483821981335609 ], [ -0.435027901731087, 39.483551934608819 ], [ -0.434679411981856, 39.483544241887927 ], [ -0.434689339886847, 39.483274195219877 ], [ -0.433992363479293, 39.483258806795426 ], [ -0.433982432884178, 39.483528853316635 ], [ -0.432936965239899, 39.483505762636028 ], [ -0.432946899870185, 39.483235716335138 ], [ -0.432598412267813, 39.483228017428743 ], [ -0.432608348109456, 39.48295797118665 ], [ -0.432259861985812, 39.482950271310564 ], [ -0.432269799038777, 39.482680225127261 ], [ -0.431921314393859, 39.482672524281547 ], [ -0.431931252658109, 39.482402478157042 ], [ -0.431234286459456, 39.482387073483224 ], [ -0.431224345505223, 39.482657119460733 ], [ -0.431572829882668, 39.482664822392699 ], [ -0.431533070108219, 39.483745006449979 ], [ -0.43223005002464, 39.483760409772437 ], [ -0.432220112436817, 39.484030455897056 ], [ -0.434311063465281, 39.484076641269134 ], [ -0.434291204029903, 39.484616734355711 ], [ -0.434639699025978, 39.484624428413426 ], [ -0.43462977045302, 39.484894475008126 ], [ -0.435675260278225, 39.484917551142239 ], [ -0.435665335607194, 39.485187597942456 ], [ -0.43601383382789, 39.485195287974101 ], [ -0.436003910368509, 39.48546533483303 ], [ -0.436352410067932, 39.485473023894812 ] ] ] } },
{ "type": "Feature", "properties": { "feature_id": "flood-0003", "evidence": "moderate", "high_fraction": 0.3548, "area_km2": 0.0279, "source": "RadarWatch classical SAR change evidence" }, "geometry": { "type": "Polygon", "coordinates": [ [ [ -0.479026481684743, 39.482082366972541 ], [ -0.47904599332224, 39.481542254873943 ], [ -0.480439961192983, 39.481572486359205 ], [ -0.480449711434343, 39.481302429999531 ], [ -0.480101220614931, 39.481294873765115 ], [ -0.480120723394242, 39.480754761146187 ], [ -0.479772235396233, 39.480747204012808 ], [ -0.479781987934132, 39.480477147753568 ], [ -0.479085015021957, 39.480462030501542 ], [ -0.479075259793933, 39.480732086616534 ], [ -0.478029797375038, 39.480709402698324 ], [ -0.478049315770116, 39.480169290886643 ], [ -0.477352346860945, 39.480154163347358 ], [ -0.477342585038996, 39.480424219116152 ], [ -0.477691070772947, 39.480431783479546 ], [ -0.477652027551883, 39.481512006697422 ], [ -0.478349010174441, 39.481527132872081 ], [ -0.478329493156383, 39.482067244682085 ], [ -0.479026481684743, 39.482082366972541 ] ] ] } },
{ "type": "Feature", "properties": { "feature_id": "flood-0004", "evidence": "moderate", "high_fraction": 0.4375, "area_km2": 0.0144, "source": "RadarWatch classical SAR change evidence" }, "geometry": { "type": "Polygon", "coordinates": [ [ [ -0.540820284825194, 39.470433478010087 ], [ -0.540829797786485, 39.47016340872932 ], [ -0.541526700668226, 39.470178152700079 ], [ -0.541545720828402, 39.469638013813594 ], [ -0.540151926333714, 39.469608522263229 ], [ -0.540142410939261, 39.469878591432263 ], [ -0.539097062378838, 39.469856461607669 ], [ -0.539078023138164, 39.470396599479841 ], [ -0.540820284825194, 39.470433478010087 ] ] ] } },
{ "type": "Feature", "properties": { "feature_id": "flood-0005", "evidence": "high", "high_fraction": 0.817, "area_km2": 0.4131, "source": "RadarWatch classical SAR change evidence" }, "geometry": { "type": "Polygon", "coordinates": [ [ [ -0.430905687757871, 39.48183927772962 ], [ -0.43091562965576, 39.481569231781585 ], [ -0.431264108519593, 39.481576935462634 ], [ -0.431274048938791, 39.481306889426435 ], [ -0.431971004377869, 39.481322293512314 ], [ -0.431990879435434, 39.480782201101896 ], [ -0.431642404338815, 39.480774499727467 ], [ -0.431652343011891, 39.480504453573744 ], [ -0.431303869393868, 39.480496751229758 ], [ -0.43132374902851, 39.479956659025262 ], [ -0.430975278233905, 39.479948955785247 ], [ -0.430985219195417, 39.479678909734496 ], [ -0.43063674987938, 39.479671205524973 ], [ -0.430656634090685, 39.479131113526456 ], [ -0.430308167597982, 39.479123408420982 ], [ -0.430318110847721, 39.478853362473238 ], [ -0.429969645833558, 39.478845656398292 ], [ -0.429989534621112, 39.478305564605826 ], [ -0.429641072430196, 39.478297857634992 ], [ -0.429660963371899, 39.477757765930917 ], [ -0.429312504004167, 39.477750058064224 ], [ -0.429342343446995, 39.476939920618669 ], [ -0.428296978248578, 39.476916791423108 ], [ -0.428306928495645, 39.476646745799272 ], [ -0.427958475041843, 39.476639034055211 ], [ -0.427978377823461, 39.476098942910667 ], [ -0.427629927192686, 39.476091230270896 ], [ -0.427649832127769, 39.475551139214829 ], [ -0.427301384319957, 39.475543425679398 ], [ -0.427321291408375, 39.475003334711815 ], [ -0.426972846423467, 39.474995620280772 ], [ -0.426992755665085, 39.474455529401709 ], [ -0.426644313503017, 39.474447814075077 ], [ -0.42667418039412, 39.47363767786721 ], [ -0.426325742399211, 39.473629961718679 ], [ -0.4263456556789, 39.473089870987302 ], [ -0.425648785468424, 39.473074435856475 ], [ -0.425668703589522, 39.472534345360941 ], [ -0.425320271373905, 39.472526626378723 ], [ -0.425330231577744, 39.472256581182585 ], [ -0.424981800840428, 39.4722488612313 ], [ -0.425011684680622, 39.471438725775798 ], [ -0.424663258110079, 39.47143100500282 ], [ -0.424683182688482, 39.470890914773086 ], [ -0.424334758940381, 39.470883193104797 ], [ -0.424344722372696, 39.470613148041579 ], [ -0.423647877967026, 39.47059770172438 ], [ -0.423657843953589, 39.470327656793884 ], [ -0.423309423296032, 39.470319932145003 ], [ -0.423319390492636, 39.470049887273539 ], [ -0.422970971313314, 39.470042161655748 ], [ -0.422980939719924, 39.469772116843316 ], [ -0.422632522018835, 39.469764390256621 ], [ -0.422662430466161, 39.468954255952411 ], [ -0.423010844135031, 39.468961982317907 ], [ -0.423020812005166, 39.468691937446721 ], [ -0.422672399680333, 39.468684211154951 ], [ -0.422682368760373, 39.468414166342811 ], [ -0.422333957913687, 39.468406439082194 ], [ -0.422343928203596, 39.468136394329115 ], [ -0.421995518835055, 39.46812866609968 ], [ -0.422025432931798, 39.467318531973547 ], [ -0.421677027729297, 39.467310802922825 ], [ -0.421696972477493, 39.466770713579464 ], [ -0.421348570096991, 39.466762983633735 ], [ -0.42136851699625, 39.466222894379172 ], [ -0.421020117437684, 39.466215163538486 ], [ -0.421040066487874, 39.465675074372712 ], [ -0.42034327314871, 39.465659609859046 ], [ -0.420373203780236, 39.464849476442922 ], [ -0.419676419040727, 39.464834008202239 ], [ -0.419686398336939, 39.464563963848427 ], [ -0.419338007512322, 39.464556228238244 ], [ -0.419367948626507, 39.46374609531015 ], [ -0.419019561967295, 39.463738358879041 ], [ -0.419029543413808, 39.463468314614126 ], [ -0.418681158232561, 39.463460577214455 ], [ -0.418701123409997, 39.462920488788214 ], [ -0.418352741050343, 39.462912750493871 ], [ -0.418372708377764, 39.46237266215654 ], [ -0.418024328839639, 39.462364922967552 ], [ -0.418034313645444, 39.462094878850699 ], [ -0.417685935585232, 39.462087138693249 ], [ -0.417705907480928, 39.461547050563205 ], [ -0.417357532242159, 39.461539309511153 ], [ -0.417377506287472, 39.46099922147009 ], [ -0.417029133870085, 39.460991479523507 ], [ -0.417049110064881, 39.460451391571425 ], [ -0.416700740468815, 39.46044364873034 ], [ -0.416710729708086, 39.460173604806144 ], [ -0.414968890461245, 39.460134875336436 ], [ -0.41492890582852, 39.461215049466588 ], [ -0.415277278782827, 39.461222797740803 ], [ -0.415267283631923, 39.46149284131053 ], [ -0.415615658064209, 39.461500588616403 ], [ -0.415605664122352, 39.461770632245369 ], [ -0.415954040032623, 39.461778378582849 ], [ -0.415944047299849, 39.46204842227106 ], [ -0.416292424688109, 39.462056167640128 ], [ -0.416282433164455, 39.462326211387555 ], [ -0.416630812030707, 39.462333955788225 ], [ -0.416590849966227, 39.463414130926566 ], [ -0.416939234341342, 39.463421874580483 ], [ -0.416929244832839, 39.463691918402226 ], [ -0.417277630686014, 39.463699661087666 ], [ -0.417257653953174, 39.464239748834842 ], [ -0.417606042628112, 39.464247490625645 ], [ -0.417586068045167, 39.464787578461809 ], [ -0.41793445954193, 39.464795319357954 ], [ -0.417924473392652, 39.465065363327852 ], [ -0.418272866367527, 39.465073103255435 ], [ -0.41825289635346, 39.465613191298893 ], [ -0.418601292150246, 39.465620930331745 ], [ -0.41859130828551, 39.465890974405283 ], [ -0.418939705560436, 39.465898712469503 ], [ -0.418929722905203, 39.466168756602201 ], [ -0.419278121658275, 39.466176493697787 ], [ -0.419258158632595, 39.466716582066773 ], [ -0.419606560207687, 39.466724318267524 ], [ -0.419596579837291, 39.46699436250379 ], [ -0.419944982890556, 39.467002097735865 ], [ -0.419935003729787, 39.467272142031277 ], [ -0.420631812926919, 39.467287609515473 ], [ -0.420581928548727, 39.468637831510129 ], [ -0.4209303400685, 39.468645564057383 ], [ -0.420920364134174, 39.468915608486036 ], [ -0.421965603530838, 39.468938800093632 ], [ -0.421925714580163, 39.470018978546577 ], [ -0.421577295937445, 39.470011248758254 ], [ -0.421557347968789, 39.470551337749079 ], [ -0.421905769299767, 39.470559067684924 ], [ -0.421895796458298, 39.470829112232074 ], [ -0.422244219267617, 39.470836841199016 ], [ -0.422224275870497, 39.471376930396744 ], [ -0.422572701502358, 39.47138465846853 ], [ -0.422552760257007, 39.471924747754997 ], [ -0.422901188711472, 39.471932474931556 ], [ -0.422891219231818, 39.472202519626499 ], [ -0.423239649164677, 39.472210245834084 ], [ -0.423219712491511, 39.472750335327355 ], [ -0.423568145247059, 39.47275806063967 ], [ -0.4235581780536, 39.47302810543799 ], [ -0.423906612287569, 39.473035829781274 ], [ -0.423896646304332, 39.473305874638619 ], [ -0.424245082016727, 39.473313598012865 ], [ -0.424225152336692, 39.473853687830903 ], [ -0.424573590871886, 39.473861410309759 ], [ -0.424553663344332, 39.474401500216437 ], [ -0.424902104702387, 39.474409221799881 ], [ -0.424882179327445, 39.474949311795186 ], [ -0.425230623508426, 39.474957032483168 ], [ -0.425220661964344, 39.475227077532473 ], [ -0.425569107623827, 39.475234797251296 ], [ -0.425559147290195, 39.475504842359584 ], [ -0.425907594428182, 39.475512561109234 ], [ -0.425877716656739, 39.476322696566932 ], [ -0.426226167962303, 39.47633041449469 ], [ -0.426216209781706, 39.476600459691532 ], [ -0.426564662565824, 39.476608176650032 ], [ -0.426554705595818, 39.476878221905835 ], [ -0.426903159858492, 39.476885937895091 ], [ -0.426863336017214, 39.477966119066004 ], [ -0.427211795792369, 39.477973834306823 ], [ -0.42720184084182, 39.478243879636466 ], [ -0.4275503020956, 39.478251593907963 ], [ -0.427530394482062, 39.478791684670426 ], [ -0.427878858559188, 39.478799398046178 ], [ -0.427868905896252, 39.479069443478998 ], [ -0.42821737145203, 39.479077155885363 ], [ -0.42820741999993, 39.479347201377095 ], [ -0.428555887034365, 39.479354912814067 ], [ -0.428535986418023, 39.479895003900644 ], [ -0.428884456275913, 39.479902714441778 ], [ -0.428874507111723, 39.480172760036609 ], [ -0.429222978448298, 39.4801804696083 ], [ -0.429213030495068, 39.480450515262028 ], [ -0.429561503310332, 39.480458223864233 ], [ -0.429531662682107, 39.481268360958019 ], [ -0.429880139665827, 39.481276068737849 ], [ -0.429860247934294, 39.481816160207408 ], [ -0.430905687757871, 39.48183927772962 ] ] ] } },
{ "type": "Feature", "properties": { "feature_id": "flood-0006", "evidence": "high", "high_fraction": 0.8, "area_km2": 0.009, "source": "RadarWatch classical SAR change evidence" }, "geometry": { "type": "Polygon", "coordinates": [ [ [ -0.569562402776818, 39.456173133916536 ], [ -0.569590593648001, 39.455362906644794 ], [ -0.569938978710894, 39.455370190706063 ], [ -0.569957769305389, 39.454830038980255 ], [ -0.569261004680923, 39.454815470093358 ], [ -0.569242208711545, 39.455355621541052 ], [ -0.568893823901542, 39.455348335394845 ], [ -0.568865624967777, 39.456158562249357 ], [ -0.569562402776818, 39.456173133916536 ] ] ] } },
{ "type": "Feature", "properties": { "feature_id": "flood-0007", "evidence": "moderate", "high_fraction": 0.0455, "area_km2": 0.0198, "source": "RadarWatch classical SAR change evidence" }, "geometry": { "type": "Polygon", "coordinates": [ [ [ -0.571709071467612, 39.454596366722662 ], [ -0.571727847866897, 39.454056214215207 ], [ -0.572076226969497, 39.454063491674361 ], [ -0.572104386590141, 39.453253262596412 ], [ -0.572452761788136, 39.453260538804798 ], [ -0.572462146732159, 39.452990462347124 ], [ -0.571765399149662, 39.452975909026883 ], [ -0.571756011518442, 39.453245985345646 ], [ -0.570710887061291, 39.453224147338972 ], [ -0.570682711317077, 39.454034375583227 ], [ -0.570334332719859, 39.454027093954394 ], [ -0.570315545571181, 39.454567245905949 ], [ -0.571709071467612, 39.454596366722662 ] ] ] } },
{ "type": "Feature", "properties": { "feature_id": "flood-0008", "evidence": "high", "high_fraction": 0.846, "area_km2": 0.5202, "source": "RadarWatch classical SAR change evidence" }, "geometry": { "type": "Polygon", "coordinates": [ [ [ -0.414968890461245, 39.460134875336436 ], [ -0.414978886283209, 39.459864831767142 ], [ -0.414630520180635, 39.459857082820399 ], [ -0.414660510869767, 39.459046952246212 ], [ -0.415357235149139, 39.459062448653775 ], [ -0.41537722289609, 39.458522361235055 ], [ -0.41502886337583, 39.458514613700245 ], [ -0.415038858390928, 39.458244570042787 ], [ -0.414690500348444, 39.458236821539728 ], [ -0.414720488616725, 39.457426690700956 ], [ -0.414372134738527, 39.457418941377597 ], [ -0.414392128931404, 39.456878854226176 ], [ -0.413695426951397, 39.456863352748897 ], [ -0.41370542653247, 39.456593309299073 ], [ -0.413008727776968, 39.456577803801267 ], [ -0.413058737095731, 39.455227587071519 ], [ -0.412710394635468, 39.455219833129462 ], [ -0.412730400107193, 39.454679746482661 ], [ -0.412382060467633, 39.454671991646563 ], [ -0.412402068087129, 39.454131905088964 ], [ -0.412053731268211, 39.454124149358869 ], [ -0.412063736219079, 39.453854106132034 ], [ -0.411715400877761, 39.453846349433945 ], [ -0.411725407037008, 39.453576306266427 ], [ -0.411377073173286, 39.453568548600373 ], [ -0.411407094872155, 39.452758419231756 ], [ -0.411058765171885, 39.452750660745828 ], [ -0.411078781650437, 39.452210574574657 ], [ -0.409685474939119, 39.452179530803868 ], [ -0.409745553371009, 39.450559273715079 ], [ -0.409397235086793, 39.450551510612073 ], [ -0.409417262838589, 39.450011424946346 ], [ -0.409068947374571, 39.450003660949662 ], [ -0.409088977272901, 39.449463575373308 ], [ -0.408740664629016, 39.449455810482995 ], [ -0.408750680718756, 39.449185767746862 ], [ -0.408402369552293, 39.449178001888811 ], [ -0.408412386849938, 39.448907959212093 ], [ -0.40806407716089, 39.448900192386347 ], [ -0.40808411403714, 39.448360107137034 ], [ -0.407735807168116, 39.448352339417745 ], [ -0.407745826746668, 39.448082296845179 ], [ -0.407397521355034, 39.44807452815823 ], [ -0.407417562792892, 39.447534443117235 ], [ -0.407069260221194, 39.447526673536828 ], [ -0.407089303804878, 39.446986588585297 ], [ -0.406044404953954, 39.446963274038517 ], [ -0.406084506613114, 39.44588310484901 ], [ -0.405736212635728, 39.445875331546695 ], [ -0.405756265340919, 39.445335247012061 ], [ -0.404014810901684, 39.445296365617224 ], [ -0.404024843763848, 39.445026323698933 ], [ -0.403676554623215, 39.445018544369198 ], [ -0.403706656426908, 39.444208418748779 ], [ -0.404403226789118, 39.444223975921155 ], [ -0.404423288614166, 39.443683891803666 ], [ -0.404075006050166, 39.44367611388676 ], [ -0.404085038102543, 39.443406071880183 ], [ -0.403736757015767, 39.443398292995923 ], [ -0.403746790275433, 39.443128251048876 ], [ -0.403050231191312, 39.443112690304062 ], [ -0.403060267000455, 39.442842648490824 ], [ -0.402711989003122, 39.442834866630292 ], [ -0.402732062900777, 39.442294783108224 ], [ -0.402383787722856, 39.442287000354696 ], [ -0.402393825811317, 39.442016958645858 ], [ -0.401697278544938, 39.442001390162709 ], [ -0.401717359685293, 39.441461306998079 ], [ -0.401369088938972, 39.441453521342808 ], [ -0.401379130648651, 39.441183479812722 ], [ -0.400682592245496, 39.441167905526264 ], [ -0.400692636504259, 39.440897864130108 ], [ -0.400344368847436, 39.440890075498956 ], [ -0.400354414313144, 39.440620034162421 ], [ -0.400006148133521, 39.440612244564107 ], [ -0.400016194806137, 39.440342203287202 ], [ -0.398274872645878, 39.44030324004521 ], [ -0.398284925893443, 39.440033199125466 ], [ -0.397588400659933, 39.440017606687171 ], [ -0.397598456456248, 39.439747565901534 ], [ -0.397250195384388, 39.43973976819462 ], [ -0.397260252387404, 39.439469727468676 ], [ -0.395518955767684, 39.439430723684673 ], [ -0.395539082787258, 39.438890642933153 ], [ -0.39519082655325, 39.438882839201014 ], [ -0.39521095571512, 39.438342758539555 ], [ -0.3948627023003, 39.438334953914996 ], [ -0.39487276802002, 39.438064913636659 ], [ -0.393131509686717, 39.438025875265581 ], [ -0.39314158198026, 39.437755835345122 ], [ -0.392793332061855, 39.437748024621321 ], [ -0.392803405561726, 39.437477984760704 ], [ -0.392106908815106, 39.437462360338138 ], [ -0.392116984863069, 39.437192320611899 ], [ -0.391072244785164, 39.437168876391695 ], [ -0.391082324722917, 39.436898836874498 ], [ -0.390734079643228, 39.436891020126346 ], [ -0.3907239983637, 39.437161059568943 ], [ -0.388286277211705, 39.437106312652325 ], [ -0.388296367883592, 39.436836273732268 ], [ -0.387948123889317, 39.436828448653536 ], [ -0.387958215767203, 39.436558409793442 ], [ -0.386913488624201, 39.43653492853349 ], [ -0.386852911168424, 39.438155160128282 ], [ -0.387897662463476, 39.438178642732993 ], [ -0.387887569771013, 39.43844868150466 ], [ -0.388932326313526, 39.438472154961111 ], [ -0.388942414980441, 39.438202115965403 ], [ -0.389987168718828, 39.438225579825463 ], [ -0.389977084077481, 39.438495619045128 ], [ -0.390325336936814, 39.4385034383237 ], [ -0.390315253501683, 39.43877347760327 ], [ -0.391708271662803, 39.438804744602109 ], [ -0.39169819345963, 39.439074784165371 ], [ -0.393439475920856, 39.439113844855214 ], [ -0.393429404291746, 39.439383884776554 ], [ -0.394125920908633, 39.439399501911652 ], [ -0.394115851827941, 39.439669541967319 ], [ -0.394464111681527, 39.439677349047237 ], [ -0.394454043807356, 39.43994738916269 ], [ -0.394802305138353, 39.439955195275665 ], [ -0.394812371670548, 39.439685155085712 ], [ -0.395857152450048, 39.439708566952483 ], [ -0.395826964525182, 39.440518688148558 ], [ -0.39687175860099, 39.440542091312444 ], [ -0.396851640693195, 39.441082172482929 ], [ -0.398244712091725, 39.441113362716102 ], [ -0.398234658303181, 39.441383403576957 ], [ -0.398582927833067, 39.441391198605892 ], [ -0.398572875251379, 39.441661239526432 ], [ -0.398921146258604, 39.441669033588234 ], [ -0.398911094883809, 39.441939074568438 ], [ -0.399259367368377, 39.441946867663113 ], [ -0.399249317200511, 39.442216908702953 ], [ -0.399597591162428, 39.442224700830472 ], [ -0.399587542201526, 39.442494741929963 ], [ -0.399935817640793, 39.442502533090291 ], [ -0.399925769886892, 39.442772574249432 ], [ -0.400274046803516, 39.442780364442541 ], [ -0.400264000256651, 39.443050405661332 ], [ -0.400960557179756, 39.443065983071513 ], [ -0.400950513182191, 39.443336024424248 ], [ -0.401298793188658, 39.443343811641284 ], [ -0.401288750398223, 39.443613853053641 ], [ -0.401637031882042, 39.443621639303409 ], [ -0.401626990298771, 39.443891680775337 ], [ -0.401975273259947, 39.443899466057808 ], [ -0.401965232883877, 39.444169507589329 ], [ -0.402313517322412, 39.444177291904481 ], [ -0.402303478153578, 39.444447333495582 ], [ -0.40334833630637, 39.444470680414078 ], [ -0.40330819438875, 39.445550847522661 ], [ -0.403656486079153, 39.445558628042569 ], [ -0.403636416995124, 39.4460987116571 ], [ -0.403984711505355, 39.446106491283828 ], [ -0.403974678103292, 39.446376533143265 ], [ -0.404322974090946, 39.446384311802547 ], [ -0.404302909566828, 39.446924395625764 ], [ -0.404651208374394, 39.446932173391779 ], [ -0.40464117725239, 39.447202215355553 ], [ -0.406034379201979, 39.447233316299112 ], [ -0.405994274845291, 39.44831348519439 ], [ -0.40564596878531, 39.448305711224343 ], [ -0.405635941016328, 39.448575753337195 ], [ -0.40598424841891, 39.44858352738143 ], [ -0.405964195161484, 39.449123611711393 ], [ -0.406312505384212, 39.449131384862213 ], [ -0.406302479895819, 39.449401427079302 ], [ -0.406999103431197, 39.449416970403803 ], [ -0.40695901087049, 39.450497139718479 ], [ -0.407655645686895, 39.450512679468893 ], [ -0.407625582907106, 39.451322806745374 ], [ -0.40797390454586, 39.451330575280188 ], [ -0.407963884692442, 39.451600617750408 ], [ -0.408312207808807, 39.451608385317442 ], [ -0.408302189163419, 39.451878427847085 ], [ -0.4086505137574, 39.451886194446331 ], [ -0.408630478747985, 39.452426279609753 ], [ -0.408978806162459, 39.4524340453153 ], [ -0.408938739898022, 39.453514215762084 ], [ -0.409635405874561, 39.453529744640122 ], [ -0.409625391657482, 39.453799787363259 ], [ -0.409973726190815, 39.453807550313385 ], [ -0.409953700038461, 39.454347635863698 ], [ -0.410302037392496, 39.45435539791999 ], [ -0.410292025457274, 39.454625440747165 ], [ -0.41064036428903, 39.454633201835478 ], [ -0.410620342700594, 39.455173287593873 ], [ -0.410968684353138, 39.455181047788273 ], [ -0.410948664912151, 39.455721133635983 ], [ -0.411297009385543, 39.455728892936435 ], [ -0.411287000806167, 39.455998935912262 ], [ -0.411635346757331, 39.456006694244678 ], [ -0.411615331880913, 39.456546780300343 ], [ -0.411963680653013, 39.456554537738732 ], [ -0.411953674356023, 39.456824580818548 ], [ -0.412302024605924, 39.456832337288851 ], [ -0.412272008936856, 39.457642466662143 ], [ -0.412620363351015, 39.457650222312374 ], [ -0.412610359202026, 39.457920265481413 ], [ -0.412958715094032, 39.457928020163493 ], [ -0.412938709078833, 39.45846810660548 ], [ -0.4136354266397, 39.458483613139137 ], [ -0.413615425459464, 39.459023699818289 ], [ -0.414312148931814, 39.459039202479111 ], [ -0.414272155703776, 39.460119376252798 ], [ -0.414968890461245, 39.460134875336436 ] ] ] } },
{ "type": "Feature", "properties": { "feature_id": "flood-0009", "evidence": "high", "high_fraction": 0.8182, "area_km2": 0.0198, "source": "RadarWatch classical SAR change evidence" }, "geometry": { "type": "Polygon", "coordinates": [ [ [ -0.536234238661968, 39.422498329083801 ], [ -0.536243753141306, 39.422228258503729 ], [ -0.536940175992714, 39.422243015067984 ], [ -0.536949687661296, 39.421972944332545 ], [ -0.537646108341765, 39.421987696591323 ], [ -0.537665125929628, 39.421447554795272 ], [ -0.538013333779028, 39.421454929222122 ], [ -0.53802284103975, 39.421184858231946 ], [ -0.538371047675713, 39.421192231547273 ], [ -0.538380553467221, 39.420922160472209 ], [ -0.537335937966988, 39.420900037614082 ], [ -0.537326428151532, 39.421170108477924 ], [ -0.536978221899312, 39.421162732039235 ], [ -0.536968710614592, 39.421432802818174 ], [ -0.536620503148995, 39.42142542526792 ], [ -0.536610990394976, 39.421695495961934 ], [ -0.535914573165021, 39.421680737597143 ], [ -0.535905057600308, 39.421950808135747 ], [ -0.535208638199669, 39.421936045465465 ], [ -0.53518960132067, 39.422476186217317 ], [ -0.536234238661968, 39.422498329083801 ] ] ] } },
{ "type": "Feature", "properties": { "feature_id": "flood-0010", "evidence": "high", "high_fraction": 0.9688, "area_km2": 0.0864, "source": "RadarWatch classical SAR change evidence" }, "geometry": { "type": "Polygon", "coordinates": [ [ [ -0.555499406921191, 39.419661726705712 ], [ -0.55550884609687, 39.419391652092344 ], [ -0.55585704837389, 39.419398972790752 ], [ -0.55586648608132, 39.419128898093014 ], [ -0.556214687144032, 39.419136217680425 ], [ -0.556233559495522, 39.418596068101799 ], [ -0.556581758002686, 39.41860338650838 ], [ -0.556600627164, 39.418063236732131 ], [ -0.556252431339255, 39.418055918465299 ], [ -0.556261867070719, 39.417785843625332 ], [ -0.55591367271409, 39.41777852438733 ], [ -0.555923109659782, 39.417508449602771 ], [ -0.555226724009715, 39.417493808143391 ], [ -0.55523616351074, 39.417223733484164 ], [ -0.554887972217315, 39.417216411262835 ], [ -0.554897412932478, 39.416946336659038 ], [ -0.554549223107173, 39.416939013466596 ], [ -0.554558665036437, 39.416668938918242 ], [ -0.553514100345996, 39.416646963304679 ], [ -0.553523546171481, 39.416376888951653 ], [ -0.553175359536525, 39.416369561735102 ], [ -0.553128122432822, 39.417719933005678 ], [ -0.552779929219405, 39.417712604398297 ], [ -0.552770480076222, 39.417982678539019 ], [ -0.552074091348424, 39.417968018061195 ], [ -0.552045735108994, 39.418778239976632 ], [ -0.552393933432913, 39.418785570946021 ], [ -0.552375031319992, 39.419325718957246 ], [ -0.554464240027768, 39.419369683750553 ], [ -0.554454796828241, 39.419639758154176 ], [ -0.555499406921191, 39.419661726705712 ] ] ] } },
{ "type": "Feature", "properties": { "feature_id": "flood-0011", "evidence": "high", "high_fraction": 0.8977, "area_km2": 0.4662, "source": "RadarWatch classical SAR change evidence" }, "geometry": { "type": "Polygon", "coordinates": [ [ [ -0.38958994000082, 39.37416341965249 ], [ -0.389620128929536, 39.373353293222316 ], [ -0.390663916063539, 39.373376718967883 ], [ -0.390673974756591, 39.373106676571346 ], [ -0.3910219027343, 39.373114483000677 ], [ -0.391052073989425, 39.372304355499125 ], [ -0.391747922325661, 39.372319964793675 ], [ -0.391757976465319, 39.372049922114648 ], [ -0.392105899498802, 39.37205772512899 ], [ -0.392136057094313, 39.371247596780066 ], [ -0.391788138073077, 39.371239793989254 ], [ -0.391818298464056, 39.370429665731372 ], [ -0.392166213473205, 39.370437468298654 ], [ -0.392176265329152, 39.370167425442069 ], [ -0.392524179136147, 39.370175226895952 ], [ -0.392534229519612, 39.369905183950166 ], [ -0.39288214212445, 39.369912984290693 ], [ -0.39294243356362, 39.36829272585986 ], [ -0.393290338280081, 39.368300524714684 ], [ -0.393300385043149, 39.368030481516882 ], [ -0.392256675310707, 39.368007082059478 ], [ -0.392306927156547, 39.366656866966956 ], [ -0.391959030868333, 39.366649065442729 ], [ -0.391989184365241, 39.365838936434081 ], [ -0.393032861601774, 39.365862337220086 ], [ -0.393042908486023, 39.365592293964291 ], [ -0.393390799831404, 39.365600092074395 ], [ -0.393420935662571, 39.364789961995292 ], [ -0.392725161128851, 39.36477436518323 ], [ -0.392735208809657, 39.364504321943038 ], [ -0.392387323082411, 39.364496522053471 ], [ -0.392397371965038, 39.364226478873043 ], [ -0.392049487709854, 39.364218678019313 ], [ -0.392069587743536, 39.363678591763289 ], [ -0.391721706297303, 39.36367079001991 ], [ -0.391731757448307, 39.363400746944315 ], [ -0.390688117931251, 39.363377335705934 ], [ -0.390718282604847, 39.362567207061559 ], [ -0.391066158298176, 39.36257501162271 ], [ -0.391076211582163, 39.362304968637275 ], [ -0.391771960700764, 39.362320574494774 ], [ -0.391792061516087, 39.361780488181672 ], [ -0.392139933604565, 39.361788289403556 ], [ -0.392260511105, 39.358547769394555 ], [ -0.392608367288764, 39.358555568684025 ], [ -0.39261841319904, 39.358285525179781 ], [ -0.393661978551152, 39.358308916594069 ], [ -0.393651936650499, 39.358578960321708 ], [ -0.394695507227522, 39.358602342613324 ], [ -0.394755732548993, 39.356982078687018 ], [ -0.395103581658943, 39.35698987026084 ], [ -0.39512365301348, 39.356449782018871 ], [ -0.394427960274278, 39.356434198130486 ], [ -0.394407883574009, 39.356974286074802 ], [ -0.393364337459031, 39.356950902007782 ], [ -0.393404506356578, 39.355870726953583 ], [ -0.389926081542749, 39.355792715548354 ], [ -0.389724948139446, 39.361193573563064 ], [ -0.390072816743323, 39.361201380867186 ], [ -0.390082873361521, 39.360931338031754 ], [ -0.391474343782338, 39.360962556564743 ], [ -0.391434137885898, 39.362042729010646 ], [ -0.389694773463241, 39.36200370175731 ], [ -0.389242007214135, 39.374155608768902 ], [ -0.38958994000082, 39.37416341965249 ] ] ] } }
]
}
